STARLINK-1571           
1 46081U 20055BG  21322.70067377  .00000292  00000+0  38535-4 0  9998
2 46081  53.0545 313.5556 0001679  62.7422 297.3738 15.06403103 72367
STARLINK-1578           
1 46082U 20055BH  21323.12088058  .00000271  00000+0  37071-4 0  9996
2 46082  53.0542 311.6660 0001432  66.1523 293.9616 15.06394539 71905
STARLINK-1579           
1 46083U 20055BJ  21322.69330992  .00000205  00000+0  32651-4 0  9991
2 46083  53.0545 313.5837 0001769  68.0311 292.0866 15.06391943 72369
GLOBAL-7                
1 46088U 20055BP  21323.05536149  .00009395  00000+0  13313-3 0  9991
2 46088  53.0038 177.7538 0003214  69.1708 290.9646 15.57259394 77602
GLOBAL-8                
1 46089U 20055BQ  21322.71956442  .00009080  00000+0  13606-3 0  9992
2 46089  53.0035 181.3965 0009799 101.9046 258.3063 15.55744502 77529
BSAT-4B                 
1 46112U 20056A   21322.69624199 -.00000338  00000+0  00000+0 0  9996
2 46112   0.1088 107.1071 0002506  74.5952 236.7749  1.00273490  4621
MEV-2                   
1 46113U 20056B   21322.38521536  .00000001  00000+0  00000+0 0  9990
2 46113   0.0252  59.4561 0001190 200.1301 295.7294  1.00270810 63864
GALAXY 30 (G-30)        
1 46114U 20056C   21322.70749859  .00000050  00000+0  00000+0 0  9991
2 46114   0.0153 294.1587 0002227 291.9061 321.6228  1.00272134  4530
STARLINK-1585           
1 46117U 20057A   21322.79283637 -.00000930  00000+0 -43543-4 0  9994
2 46117  53.0545 153.1494 0001798  77.1851 282.9339 15.06390485 69422
STARLINK-1588           
1 46118U 20057B   21322.86838845  .00001070  00000+0  90731-4 0  9995
2 46118  53.0527 172.8073 0001739  77.0042 283.1141 15.06401690 70438
STARLINK-1593           
1 46119U 20057C   21322.99002965 -.00000569  00000+0 -19280-4 0  9990
2 46119  53.0551 172.2613 0001985  72.5139 287.6067 15.06391225 69830
STARLINK-1601           
1 46120U 20057D   21322.84258477  .00001037  00000+0  88499-4 0  9994
2 46120  53.0537 172.9178 0002011  69.5021 290.6184 15.06401882 70439
STARLINK-1602           
1 46121U 20057E   21322.87762381  .00000559  00000+0  56448-4 0  9999
2 46121  53.0539 152.7624 0001745  66.0554 294.0618 15.06389740 69436
STARLINK-1604           
1 46122U 20057F   21322.88684315  .00000524  00000+0  54106-4 0  9992
2 46122  53.0533 132.7129 0001722  77.5307 282.5875 15.06387242 70970
STARLINK-1605           
1 46123U 20057G   21322.73939503  .00000846  00000+0  75715-4 0  9995
2 46123  53.0538 133.3788 0001675  81.2206 278.8973 15.06400167 70970
STARLINK-1614           
1 46124U 20057H   21322.74677539  .00000784  00000+0  71522-4 0  9998
2 46124  53.0544 133.3517 0001693  74.6837 285.4339 15.06388283 69707
STARLINK-1618           
1 46125U 20057J   21322.86101815 -.00000798  00000+0 -34645-4 0  9993
2 46125  53.0523 172.8267 0001991  74.1506 285.9702 15.06393005 70411
STARLINK-1619           
1 46126U 20057K   21322.63621168  .00001345  00000+0  10923-3 0  9996
2 46126  53.0780 173.7237 0001773  52.6569 307.4582 15.06383391 69121
STARLINK-1621           
1 46127U 20057L   21322.82602086  .00000669  00000+0  63824-4 0  9993
2 46127  53.0532 152.9941 0001769  75.5002 284.6183 15.06389731 69429
STARLINK-1622           
1 46128U 20057M   21322.85367402  .00000260  00000+0  36353-4 0  9991
2 46128  53.0543 132.8723 0001653  71.5576 288.5593 15.06395884 69717
STARLINK-1623           
1 46129U 20057N   21322.82784146  .00000644  00000+0  62155-4 0  9992
2 46129  53.0543 132.9867 0001706  83.9407 276.1776 15.06403765 69711
STARLINK-1624           
1 46130U 20057P   21322.86101883  .00000943  00000+0  82177-4 0  9997
2 46130  53.0536 132.8324 0001554  79.6492 280.4673 15.06398764 70964
STARLINK-1625           
1 46131U 20057Q   21322.94028628  .00001032  00000+0  88186-4 0  9998
2 46131  53.0542 152.4836 0001757  79.9275 280.1912 15.06395068 70704
STARLINK-1630           
1 46132U 20057R   21323.04532025  .00000891  00000+0  78742-4 0  9991
2 46132  53.0538 172.0087 0001703  77.3892 282.7287 15.06390609 69846
STARLINK-1637           
1 46133U 20057S   21322.84628386  .00000550  00000+0  55841-4 0  9992
2 46133  53.0525 132.8996 0001695  84.9182 275.2001 15.06396842 70963
STARLINK-1638           
1 46134U 20057T   21322.84996842  .00000672  00000+0  63988-4 0  9994
2 46134  53.0526 132.8870 0001603  81.5483 278.5688 15.06393192 69715
STARLINK-1639           
1 46135U 20057U   21322.86470700  .00000654  00000+0  62812-4 0  9992
2 46135  53.0538 132.8143 0001604  78.9584 281.1585 15.06397746 69710
STARLINK-1643           
1 46136U 20057V   21322.84719465  .00001286  00000+0  10525-3 0  9990
2 46136  53.0528 162.9012 0002068  76.8921 283.2299 15.06403221 69290
STARLINK-1586           
1 46137U 20057W   21322.80021037  .00000567  00000+0  56950-4 0  9992
2 46137  53.0528 153.1009 0001683  81.6138 278.5042 15.06394756 69425
STARLINK-1590           
1 46138U 20057X   21322.86470803  .00000900  00000+0  79344-4 0  9991
2 46138  53.0537 172.8131 0001880  77.4207 282.6992 15.06399628 69152
STARLINK-1594           
1 46140U 20057Z   21322.82417315  .00000565  00000+0  56865-4 0  9999
2 46140  53.0531 133.0029 0001752  80.5421 279.5765 15.06385904 70972
STARLINK-1596           
1 46141U 20057AA  21322.86840879  .00000508  00000+0  53033-4 0  9990
2 46141  53.0530 132.8043 0001620  88.6650 271.4524 15.06386321 69710
STARLINK-1597           
1 46142U 20057AB  21323.01951370 -.00000934  00000+0 -43819-4 0  9994
2 46142  53.0554 172.1262 0001833  72.6997 287.4193 15.06397031 69832
STARLINK-1599           
1 46143U 20057AC  21323.08458055  .00328221  00000+0  58666-2 0  9998
2 46143  53.0538 143.0046 0001591  56.5124 303.6035 15.48306207 70251
STARLINK-1606           
1 46144U 20057AD  21322.91816628  .00000918  00000+0  80555-4 0  9998
2 46144  53.0540 152.5791 0001934  75.9660 284.1544 15.06388639 57692
STARLINK-1608           
1 46146U 20057AF  21322.83155177  .00000858  00000+0  76515-4 0  9990
2 46146  53.0524 172.9709 0001706  86.7962 273.3222 15.06391671 69150
STARLINK-1611           
1 46147U 20057AG  21322.87944548 -.00000814  00000+0 -35754-4 0  9997
2 46147  53.0522 172.7508 0001891  79.6598 280.4604 15.06398712 70412
STARLINK-1616           
1 46148U 20057AH  21323.01769099  .00000723  00000+0  67433-4 0  9997
2 46148  53.0528 152.1215 0001714  77.7219 282.3962 15.06389926 70111
STARLINK-1620           
1 46149U 20057AJ  21322.83339676  .00001335  00000+0  10853-3 0  9994
2 46149  53.0525 152.9619 0001932  64.1040 296.0148 15.06391490 70701
STARLINK-1629           
1 46150U 20057AK  21322.82785182 -.00000487  00000+0 -13783-4 0  9997
2 46150  53.0536 172.9753 0001657  82.2091 277.9086 15.06394546 69158
STARLINK-1631           
1 46151U 20057AL  21322.93658388 -.00000778  00000+0 -33329-4 0  9998
2 46151  53.0531 152.4987 0001742  75.3992 284.7190 15.06392796 69443
STARLINK-1634           
1 46152U 20057AM  21322.98634519  .00001056  00000+0  89795-4 0  9990
2 46152  53.0539 172.2708 0001721  76.3940 283.7241 15.06397369 69834
STARLINK-1636           
1 46153U 20057AN  21322.82232225  .00000410  00000+0  46424-4 0  9997
2 46153  53.0541 153.0115 0001710  72.9271 287.1905 15.06384207 69421
STARLINK-1642           
1 46154U 20057AP  21323.03149625 -.00000775  00000+0 -33133-4 0  9992
2 46154  53.0540 162.0714 0001537  75.3097 284.8062 15.06390152 69970
STARLINK-1667           
1 46155U 20057AQ  21322.99003726  .00000414  00000+0  46721-4 0  9993
2 46155  53.0527 132.2541 0001448  73.7577 286.3571 15.06392457 70399
STARLINK-1545           
1 46156U 20057AR  21322.91446670  .00001193  00000+0  98988-4 0  9992
2 46156  53.0526 152.5947 0001878  80.4435 279.6766 15.06400724 70690
STARLINK-1587           
1 46157U 20057AS  21322.90157437  .00000437  00000+0  48261-4 0  9991
2 46157  53.0546 132.6412 0001455  80.2691 279.8462 15.06397365 69725
STARLINK-1589           
1 46158U 20057AT  21322.83153413 -.00001355  00000+0 -72130-4 0  9998
2 46158  53.0541 132.9669 0001626  82.7526 277.3648 15.06390652 70972
STARLINK-1595           
1 46159U 20057AU  21322.87207958  .00000943  00000+0  82236-4 0  9995
2 46159  53.0535 172.7911 0001948  80.0167 280.1042 15.06399747 70410
STARLINK-1598           
1 46160U 20057AV  21322.86286844 -.00001105  00000+0 -55274-4 0  9992
2 46160  53.0534 152.8232 0001961  74.5628 285.5577 15.06392437 70681
STARLINK-1600           
1 46161U 20057AW  21322.84075402  .00001422  00000+0  11437-3 0  9999
2 46161  53.0533 152.9210 0001755  78.3991 281.7195 15.06402323 70684
STARLINK-1603           
1 46162U 20057AX  21322.91078144  .00000685  00000+0  64878-4 0  9992
2 46162  53.0531 152.6042 0001815  73.5712 286.5477 15.06404506 70702
STARLINK-1610           
1 46163U 20057AY  21322.90895552  .00000567  00000+0  56965-4 0  9999
2 46163  53.0547 132.6260 0001618  84.2293 275.8881 15.06397952 69720
STARLINK-1612           
1 46164U 20057AZ  21322.83891156 -.00001413  00000+0 -75962-4 0  9999
2 46164  53.0532 132.9383 0001646  77.4354 282.6819 15.06400504 70971
STARLINK-1613           
1 46165U 20057BA  21322.84996403  .00000867  00000+0  77076-4 0  9990
2 46165  53.0523 172.8854 0001741  76.7543 283.3640 15.06396130 69153
STARLINK-1615           
1 46166U 20057BB  21322.82417424  .00000816  00000+0  73681-4 0  9992
2 46166  53.0537 172.9928 0002063  76.4872 283.6347 15.06400833 69155
STARLINK-1626           
1 46167U 20057BC  21322.83890708  .00001160  00000+0  96781-4 0  9993
2 46167  53.0544 172.9380 0001590  88.3990 271.7181 15.06390883 69150
STARLINK-1627           
1 46168U 20057BD  21322.87576007  .00001136  00000+0  95144-4 0  9996
2 46168  53.0538 122.7635 0001479  92.1201 267.9957 15.06396416 70512
STARLINK-1628           
1 46169U 20057BE  21322.94239173  .00001362  00000+0  11259-3 0  9990
2 46169  52.9991 172.4590 0001878  78.1744 281.9454 15.05586138 69141
